NORAD_CAT_ID,OBJECT_NAME,OBJECT_TYPE,EPOCH,MEAN_MOTION,ECCENTRICITY,INCLINATION,RA_OF_ASC_NODE,ARG_OF_PERICENTER,MEAN_ANOMALY,BSTAR,MEAN_MOTION_DOT,MEAN_MOTION_DDOT,TLE_LINE0,TLE_LINE1,TLE_LINE2,SEMIMAJOR_AXIS,PERIOD,APOGEE,PERIGEE,DECAYED
55396.0,STARLINK-5283,PAYLOAD,2024-01-15 00:36:02,14.98333773,0.0002481,69.9985,242.7344,265.9312,94.1564,3.3073e-05,3.02e-06,0.0,0 STARLINK-5283,1 55396U 23014F   24015.02502558  .00000302  00000-0  33073-4 0  9992,2 55396  69.9985 242.7344 0002481 265.9312  94.1564 14.98333773 54528,6950.181,96.107,573.771,570.322,0.0
55396.0,STARLINK-5283,PAYLOAD,2024-01-15 19:49:39,14.9832846,0.0002559,69.9986,240.7145,268.7698,91.3168,-1.8317e-06,-1.15e-06,0.0,0 STARLINK-5283,1 55396U 23014F   24015.82614866 -.00000115  00000-0 -18317-5 0  9995,2 55396  69.9986 240.7145 0002559 268.7698  91.3168 14.98328460 54649,6950.198,96.107,573.841,570.284,0.0
55396.0,STARLINK-5283,PAYLOAD,2024-01-16 02:14:11,14.98330441,0.0002612,69.9989,240.042,270.5884,89.4975,4.6039e-05,4.56e-06,0.0,0 STARLINK-5283,1 55396U 23014F   24016.09318625  .00000456  00000-0  46039-4 0  9996,2 55396  69.9989 240.0420 0002612 270.5884  89.4975 14.98330441 53745,6950.192,96.107,573.872,570.241,0.0
55396.0,STARLINK-5283,PAYLOAD,2024-01-16 15:03:16,14.98328399,0.0002486,69.9991,238.6962,263.5332,96.5543,-4.6062e-05,-6.42e-06,0.0,0 STARLINK-5283,1 55396U 23014F   24016.62726951 -.00000642  00000-0 -46062-4 0  9995,2 55396  69.9991 238.6962 0002486 263.5332  96.5543 14.98328399 54763,6950.198,96.107,573.791,570.335,0.0
55396.0,STARLINK-5283,PAYLOAD,2024-01-16 21:27:48,14.98327567,0.000243,69.9991,238.0223,261.3858,98.7026,-4.8847e-05,-6.76e-06,0.0,0 STARLINK-5283,1 55396U 23014F   24016.89431025 -.00000676  00000-0 -48847-4 0  9999,2 55396  69.9991 238.0223 0002430 261.3858  98.7026 14.98327567 54806,6950.2,96.107,573.754,570.377,0.0
55396.0,STARLINK-5283,PAYLOAD,2024-01-17 15:05:16,14.98330353,0.0002557,69.9991,236.1707,269.2045,90.8821,5.7962e-06,-2.4e-07,0.0,0 STARLINK-5283,1 55396U 23014F   24017.62866705 -.00000024  00000-0  57962-5 0  9993,2 55396  69.9991 236.1707 0002557 269.2045  90.8821 14.98330353 54912,6950.192,96.107,573.834,570.28,0.0
55396.0,STARLINK-5283,PAYLOAD,2024-01-17 18:17:32,14.98330325,0.0002564,69.9991,235.8338,268.7644,91.3221,3.122e-06,-5.6e-07,0.0,0 STARLINK-5283,1 55396U 23014F   24017.76218702 -.00000056  00000-0  31220-5 0  9990,2 55396  69.9991 235.8338 0002564 268.7644  91.3221 14.98330325 53991,6950.192,96.107,573.839,570.275,0.0
55396.0,STARLINK-5283,PAYLOAD,2024-01-17 21:29:49,14.98330346,0.0002562,69.9991,235.4971,268.6702,91.4163,4.1802e-06,-4.3e-07,0.0,0 STARLINK-5283,1 55396U 23014F   24017.89570694 -.00000043  00000-0  41802-5 0  9998,2 55396  69.9991 235.4971 0002562 268.6702  91.4163 14.98330346 54958,6950.192,96.107,573.837,570.276,0.0
55396.0,STARLINK-5283,PAYLOAD,2024-01-18 13:31:09,14.98328651,0.0002533,69.9993,233.814,271.9483,88.1386,2.0059e-05,1.46e-06,0.0,0 STARLINK-5283,1 55396U 23014F   24018.56330752  .00000146  00000-0  20059-4 0  9995,2 55396  69.9993 233.8140 0002533 271.9483  88.1386 14.98328651 55059,6950.197,96.107,573.823,570.302,0.0
55396.0,STARLINK-5283,PAYLOAD,2024-01-18 19:55:41,14.98328968,0.0002531,69.9991,233.1407,269.5769,90.51,2.9861e-05,2.63e-06,0.0,0 STARLINK-5283,1 55396U 23014F   24018.83034686  .00000263  00000-0  29861-4 0  9992,2 55396  69.9991 233.1407 0002531 269.5769  90.5100 14.98328968 54156,6950.196,96.107,573.82,570.302,0.0
55396.0,STARLINK-5283,PAYLOAD,2024-01-18 21:31:49,14.98329485,0.0002521,69.999,232.9723,269.4622,90.6248,3.5618e-05,3.32e-06,0.0,0 STARLINK-5283,1 55396U 23014F   24018.89710636  .00000332  00000-0  35618-4 0  9998,2 55396  69.9990 232.9723 0002521 269.4622  90.6248 14.98329485 55104,6950.194,96.107,573.812,570.307,0.0
55396.0,STARLINK-5283,PAYLOAD,2024-01-19 00:44:06,14.98329577,0.0002516,69.999,232.6357,269.7225,90.3645,3.4906e-05,3.24e-06,0.0,0 STARLINK-5283,1 55396U 23014F   24019.03062631  .00000324  00000-0  34906-4 0  9990,2 55396  69.9990 232.6357 0002516 269.7225  90.3645 14.98329577 55122,6950.194,96.107,573.808,570.311,0.0
55396.0,STARLINK-5283,PAYLOAD,2024-01-19 19:57:42,14.98332128,0.0002476,69.9991,230.6164,263.039,97.0487,1.0657e-05,3.4e-07,0.0,0 STARLINK-5283,1 55396U 23014F   24019.83174400  .00000034  00000-0  10657-4 0  9991,2 55396  69.9991 230.6164 0002476 263.0390  97.0487 14.98332128 54305,6950.186,96.107,573.772,570.33,0.0
55396.0,STARLINK-5283,PAYLOAD,2024-01-19 21:33:50,14.98332078,0.0002479,69.9991,230.448,263.2735,96.8142,9.596e-06,2.2e-07,0.0,0 STARLINK-5283,1 55396U 23014F   24019.89850396  .00000022  00000-0  95960-5 0  9990,2 55396  69.9991 230.4480 0002479 263.2735  96.8142 14.98332078 55256,6950.186,96.107,573.774,570.329,0.0
55396.0,STARLINK-5283,PAYLOAD,2024-01-20 15:11:19,14.98327725,0.0002421,69.9992,228.5966,263.0188,97.0696,-2.8525e-05,-4.33e-06,0.0,0 STARLINK-5283,1 55396U 23014F   24020.63286746 -.00000433  00000-0 -28525-4 0  9996,2 55396  69.9992 228.5966 0002421 263.0188  97.0696 14.98327725 55363,6950.2,96.107,573.748,570.382,0.0
55396.0,STARLINK-5283,PAYLOAD,2024-01-20 19:59:44,14.98326651,0.0002463,69.9991,228.0913,262.1234,97.9645,-4.2307e-05,-5.98e-06,0.0,0 STARLINK-5283,1 55396U 23014F   24020.83314863 -.00000598  00000-0 -42307-4 0  9996,2 55396  69.9991 228.0913 0002463 262.1234  97.9645 14.98326651 54456,6950.203,96.107,573.78,570.356,0.0
55396.0,STARLINK-5283,PAYLOAD,2024-01-20 21:35:52,14.98326547,0.0002466,69.9991,227.923,262.5479,97.54,-4.3049e-05,-6.06e-06,0.0,0 STARLINK-5283,1 55396U 23014F   24020.89990883 -.00000606  00000-0 -43049-4 0  9998,2 55396  69.9991 227.9230 0002466 262.5479  97.5400 14.98326547 55409,6950.204,96.107,573.782,570.355,0.0
55396.0,STARLINK-5283,PAYLOAD,2024-01-20 23:12:00,14.98326837,0.0002464,69.9991,227.7547,262.7021,97.3858,-3.9094e-05,-5.59e-06,0.0,0 STARLINK-5283,1 55396U 23014F   24020.96666865 -.00000559  00000-0 -39094-4 0  9998,2 55396  69.9991 227.7547 0002464 262.7021  97.3858 14.98326837 55419,6950.203,96.107,573.78,570.355,0.0
55396.0,STARLINK-5283,PAYLOAD,2024-01-21 20:01:44,14.9833179,0.0002543,69.9991,225.5659,264.6423,95.4445,9.0928e-07,-8.2e-07,0.0,0 STARLINK-5283,1 55396U 23014F   24021.83454411 -.00000082  00000-0  90928-6 0  9992,2 55396  69.9991 225.5659 0002543 264.6423  95.4445 14.98331790 54609,6950.187,96.107,573.82,570.285,0.0
55396.0,STARLINK-5283,PAYLOAD,2024-01-21 21:37:52,14.98332627,0.0002521,69.9991,225.3976,264.0867,96.0004,1.191e-05,4.9e-07,0.0,0 STARLINK-5283,1 55396U 23014F   24021.90130311  .00000049  00000-0  11910-4 0  9994,2 55396  69.9991 225.3976 0002521 264.0867  96.0004 14.98332627 55554,6950.185,96.107,573.802,570.298,0.0
55396.0,STARLINK-5283,PAYLOAD,2024-01-21 23:14:00,14.98332993,0.000252,69.9992,225.2294,264.257,95.8302,1.5735e-05,9.5e-07,0.0,0 STARLINK-5283,1 55396U 23014F   24021.96806267  .00000095  00000-0  15735-4 0  9990,2 55396  69.9992 225.2294 0002520 264.2570  95.8302 14.98332993 55564,6950.184,96.107,573.8,570.297,0.0
55396.0,STARLINK-5283,PAYLOAD,2024-01-22 20:03:45,14.98333388,0.0002459,69.9995,223.0417,264.6028,95.485,9.3658e-05,1.025e-05,0.0,0 STARLINK-5283,1 55396U 23014F   24022.83593947  .00001025  00000-0  93658-4 0  9999,2 55396  69.9995 223.0417 0002459 264.6028  95.4850 14.98333388 54756,6950.182,96.107,573.756,570.338,0.0
55396.0,STARLINK-5283,PAYLOAD,2024-01-22 21:39:53,14.98335382,0.0002422,69.9995,222.8738,262.5602,97.5281,0.00011547,1.285e-05,0.0,0 STARLINK-5283,1 55396U 23014F   24022.90269724  .00001285  00000-0  11547-3 0  9994,2 55396  69.9995 222.8738 0002422 262.5602  97.5281 14.98335382 55707,6950.176,96.107,573.725,570.358,0.0
55396.0,STARLINK-5283,PAYLOAD,2024-01-22 23:16:01,14.98335843,0.0002425,69.9995,222.7055,262.9161,97.1723,0.00011784,1.314e-05,0.0,0 STARLINK-5283,1 55396U 23014F   24022.96945665  .00001314  00000-0  11784-3 0  9991,2 55396  69.9995 222.7055 0002425 262.9161  97.1723 14.98335843 55715,6950.175,96.107,573.725,570.354,0.0
55396.0,STARLINK-5283,PAYLOAD,2024-01-23 21:41:54,14.98328787,0.000236,70.0001,220.3498,261.4089,98.6803,-4.4173e-05,-6.2e-06,0.0,0 STARLINK-5283,1 55396U 23014F   24023.90410271 -.00000620  00000-0 -44173-4 0  9996,2 55396  70.0001 220.3498 0002360 261.4089  98.6803 14.98328787 55851,6950.197,96.107,573.702,570.421,0.0
55396.0,STARLINK-5283,PAYLOAD,2024-01-23 23:18:02,14.98328603,0.0002374,70.0,220.1812,263.9,96.1889,-4.5731e-05,-6.38e-06,0.0,0 STARLINK-5283,1 55396U 23014F   24023.97086295 -.00000638  00000-0 -45731-4 0  9998,2 55396  70.0000 220.1812 0002374 263.9000  96.1889 14.98328603 54924,6950.197,96.107,573.712,570.412,0.0
55396.0,STARLINK-5283,PAYLOAD,2024-01-24 13:43:15,14.98327688,0.0002538,69.9998,218.6662,268.833,91.2539,-1.6552e-06,-1.13e-06,0.0,0 STARLINK-5283,1 55396U 23014F   24024.57170151 -.00000113  00000-0 -16552-5 0  9998,2 55396  69.9998 218.6662 0002538 268.8330  91.2539 14.98327688 55958,6950.2,96.107,573.829,570.301,0.0
55396.0,STARLINK-5283,PAYLOAD,2024-01-24 21:43:55,14.98327023,0.0002582,69.9999,217.8241,268.6939,91.3924,-5.3467e-05,-7.31e-06,0.0,0 STARLINK-5283,1 55396U 23014F   24024.90550361 -.00000731  00000-0 -53467-4 0  9991,2 55396  69.9999 217.8241 0002582 268.6939  91.3924 14.98327023 56004,6950.202,96.107,573.862,570.273,0.0
55396.0,STARLINK-5283,PAYLOAD,2024-01-25 13:45:15,14.98328554,0.0002709,69.9998,216.1409,269.0466,91.0382,3.2133e-06,-5.5e-07,0.0,0 STARLINK-5283,1 55396U 23014F   24025.57310012 -.00000055  00000-0  32133-5 0  9998,2 55396  69.9998 216.1409 0002709 269.0466  91.0382 14.98328554 56108,6950.197,96.107,573.945,570.18,0.0
55396.0,STARLINK-5283,PAYLOAD,2024-01-25 21:45:56,14.98328652,0.0002712,70.0,215.2993,270.0722,90.0126,5.9423e-06,-2.2e-07,0.0,0 STARLINK-5283,1 55396U 23014F   24025.90690025 -.00000022  00000-0  59423-5 0  9995,2 55396  70.0000 215.2993 0002712 270.0722  90.0126 14.98328652 56153,6950.197,96.107,573.947,570.177,0.0
